COSMOS 2600             
1 67674U 26023A   26057.58886031  .00081735  00000+0  37818-3 0  9995
2 67674  96.6459 133.5820 0003340  50.9867 309.1701 15.83259373  3299
2026-023B               
1 67675U 26023B   26057.61530987  .00011485  00000+0  49285-3 0  9992
2 67675  96.6380 131.8468 0018720 169.8094 190.3528 15.22686160  3177
2026-023C               
1 67676U 26023C   26057.61437435  .00014289  00000+0  61027-3 0  9990
2 67676  96.6416 131.8658 0019855 160.0322 200.1698 15.22780349  3336
2026-023D               
1 67677U 26023D   26057.48473547  .00011790  00000+0  50668-3 0  9993
2 67677  96.6446 131.7363 0020025 165.4603 194.7216 15.22607935  3146
2026-023E               
1 67678U 26023E   26057.61472993  .00012973  00000+0  55478-3 0  9991
2 67678  96.6341 131.8412 0019828 164.4534 195.7318 15.22756641  3163
2026-023F               
1 67679U 26023F   26057.61281590  .00015062  00000+0  63992-3 0  9995
2 67679  96.6348 134.3400 0021734 159.2839 200.9286 15.22910223  3155
2026-023G               
1 67680U 26023G   26057.61334998  .00014606  00000+0  62093-3 0  9992
2 67680  96.6276 134.3281 0023325 155.8660 204.3678 15.22861804  3159
2026-023H               
1 67681U 26023H   26057.15328617  .00011052  00000+0  47138-3 0  9998
2 67681  96.6420 133.9410 0023329 156.8598 203.3697 15.22810229  3082
2026-023J               
1 67682U 26023J   26057.61247521  .00015631  00000+0  66304-3 0  9997
2 67682  96.6377 134.3553 0023554 152.0777 208.1731 15.22919160  3158
ISS OBJECT XZ           
1 67683U 98067XZ  26057.58327148  .00040888  00000+0  69811-3 0  9993
2 67683  51.6313 126.9935 0009775 149.0473 211.1094 15.50854175  3060
GXIBA-1                 
1 67684U 98067YA  26057.57044841  .00072297  00000+0  11548-2 0  9991
2 67684  51.6306 126.9092 0011232 140.1266 220.0551 15.52453844  3067
CORAL                   
1 67685U 98067YB  26057.58101291  .00044531  00000+0  75186-3 0  9995
2 67685  51.6315 126.9792 0011674 145.1158 215.0598 15.51107174  3066
