CCSDS_OMM_VERS = 2.0
CREATION_DATE  = 
ORIGINATOR     = 

OBJECT_NAME    = COSMOS 2600
OBJECT_ID      = 2026-023A
CENTER_NAME    = EARTH
REF_FRAME      = TEME
TIME_SYSTEM    = UTC
MEAN_ELEMENT_THEORY = SGP/SGP4

EPOCH          = 2026-02-26T14:07:57.530784
MEAN_MOTION    = 15.83259373
ECCENTRICITY   = .00033409
INCLINATION    = 96.6459
RA_OF_ASC_NODE = 133.5820
ARG_OF_PERICENTER = 50.9867
MEAN_ANOMALY   = 309.1701

EPHEMERIS_TYPE = 0
CLASSIFICATION_TYPE = U
NORAD_CAT_ID   = 67674
ELEMENT_SET_NO = 999
REV_AT_EPOCH   = 329
BSTAR          = .37817667E-3
MEAN_MOTION_DOT = .81735E-3
MEAN_MOTION_DDOT = 0

CCSDS_OMM_VERS = 2.0
CREATION_DATE  = 
ORIGINATOR     = 

OBJECT_NAME    = 2026-023B
OBJECT_ID      = 2026-023B
CENTER_NAME    = EARTH
REF_FRAME      = TEME
TIME_SYSTEM    = UTC
MEAN_ELEMENT_THEORY = SGP/SGP4

EPOCH          = 2026-02-26T14:46:02.772768
MEAN_MOTION    = 15.22686160
ECCENTRICITY   = .001872
INCLINATION    = 96.6380
RA_OF_ASC_NODE = 131.8468
ARG_OF_PERICENTER = 169.8094
MEAN_ANOMALY   = 190.3528

EPHEMERIS_TYPE = 0
CLASSIFICATION_TYPE = U
NORAD_CAT_ID   = 67675
ELEMENT_SET_NO = 999
REV_AT_EPOCH   = 317
BSTAR          = .49285376E-3
MEAN_MOTION_DOT = .11485E-3
MEAN_MOTION_DDOT = 0

CCSDS_OMM_VERS = 2.0
CREATION_DATE  = 
ORIGINATOR     = 

OBJECT_NAME    = 2026-023C
OBJECT_ID      = 2026-023C
CENTER_NAME    = EARTH
REF_FRAME      = TEME
TIME_SYSTEM    = UTC
MEAN_ELEMENT_THEORY = SGP/SGP4

EPOCH          = 2026-02-26T14:44:41.943840
MEAN_MOTION    = 15.22780349
ECCENTRICITY   = .0019855
INCLINATION    = 96.6416
RA_OF_ASC_NODE = 131.8658
ARG_OF_PERICENTER = 160.0322
MEAN_ANOMALY   = 200.1698

EPHEMERIS_TYPE = 0
CLASSIFICATION_TYPE = U
NORAD_CAT_ID   = 67676
ELEMENT_SET_NO = 999
REV_AT_EPOCH   = 333
BSTAR          = .61026513E-3
MEAN_MOTION_DOT = .14289E-3
MEAN_MOTION_DDOT = 0

CCSDS_OMM_VERS = 2.0
CREATION_DATE  = 
ORIGINATOR     = 

OBJECT_NAME    = 2026-023D
OBJECT_ID      = 2026-023D
CENTER_NAME    = EARTH
REF_FRAME      = TEME
TIME_SYSTEM    = UTC
MEAN_ELEMENT_THEORY = SGP/SGP4

EPOCH          = 2026-02-26T11:38:01.144608
MEAN_MOTION    = 15.22607935
ECCENTRICITY   = .00200252
INCLINATION    = 96.6446
RA_OF_ASC_NODE = 131.7363
ARG_OF_PERICENTER = 165.4603
MEAN_ANOMALY   = 194.7216

EPHEMERIS_TYPE = 0
CLASSIFICATION_TYPE = U
NORAD_CAT_ID   = 67677
ELEMENT_SET_NO = 999
REV_AT_EPOCH   = 314
BSTAR          = .50667536E-3
MEAN_MOTION_DOT = .1179E-3
MEAN_MOTION_DDOT = 0

CCSDS_OMM_VERS = 2.0
CREATION_DATE  = 
ORIGINATOR     = 

OBJECT_NAME    = 2026-023E
OBJECT_ID      = 2026-023E
CENTER_NAME    = EARTH
REF_FRAME      = TEME
TIME_SYSTEM    = UTC
MEAN_ELEMENT_THEORY = SGP/SGP4

EPOCH          = 2026-02-26T14:45:12.665952
MEAN_MOTION    = 15.22756641
ECCENTRICITY   = .00198288
INCLINATION    = 96.6341
RA_OF_ASC_NODE = 131.8412
ARG_OF_PERICENTER = 164.4534
MEAN_ANOMALY   = 195.7318

EPHEMERIS_TYPE = 0
CLASSIFICATION_TYPE = U
NORAD_CAT_ID   = 67678
ELEMENT_SET_NO = 999
REV_AT_EPOCH   = 316
BSTAR          = .55478291E-3
MEAN_MOTION_DOT = .12973E-3
MEAN_MOTION_DDOT = 0

CCSDS_OMM_VERS = 2.0
CREATION_DATE  = 
ORIGINATOR     = 

OBJECT_NAME    = 2026-023F
OBJECT_ID      = 2026-023F
CENTER_NAME    = EARTH
REF_FRAME      = TEME
TIME_SYSTEM    = UTC
MEAN_ELEMENT_THEORY = SGP/SGP4

EPOCH          = 2026-02-26T14:42:27.293760
MEAN_MOTION    = 15.22910223
ECCENTRICITY   = .0021734
INCLINATION    = 96.6348
RA_OF_ASC_NODE = 134.3400
ARG_OF_PERICENTER = 159.2839
MEAN_ANOMALY   = 200.9286

EPHEMERIS_TYPE = 0
CLASSIFICATION_TYPE = U
NORAD_CAT_ID   = 67679
ELEMENT_SET_NO = 999
REV_AT_EPOCH   = 315
BSTAR          = .6399215E-3
MEAN_MOTION_DOT = .15062E-3
MEAN_MOTION_DDOT = 0

CCSDS_OMM_VERS = 2.0
CREATION_DATE  = 
ORIGINATOR     = 

OBJECT_NAME    = 2026-023G
OBJECT_ID      = 2026-023G
CENTER_NAME    = EARTH
REF_FRAME      = TEME
TIME_SYSTEM    = UTC
MEAN_ELEMENT_THEORY = SGP/SGP4

EPOCH          = 2026-02-26T14:43:13.438272
MEAN_MOTION    = 15.22861804
ECCENTRICITY   = .00233259
INCLINATION    = 96.6276
RA_OF_ASC_NODE = 134.3281
ARG_OF_PERICENTER = 155.8660
MEAN_ANOMALY   = 204.3678

EPHEMERIS_TYPE = 0
CLASSIFICATION_TYPE = U
NORAD_CAT_ID   = 67680
ELEMENT_SET_NO = 999
REV_AT_EPOCH   = 315
BSTAR          = .62092881E-3
MEAN_MOTION_DOT = .14606E-3
MEAN_MOTION_DDOT = 0

CCSDS_OMM_VERS = 2.0
CREATION_DATE  = 
ORIGINATOR     = 

OBJECT_NAME    = 2026-023H
OBJECT_ID      = 2026-023H
CENTER_NAME    = EARTH
REF_FRAME      = TEME
TIME_SYSTEM    = UTC
MEAN_ELEMENT_THEORY = SGP/SGP4

EPOCH          = 2026-02-26T03:40:43.925088
MEAN_MOTION    = 15.22810229
ECCENTRICITY   = .00233298
INCLINATION    = 96.6420
RA_OF_ASC_NODE = 133.9410
ARG_OF_PERICENTER = 156.8598
MEAN_ANOMALY   = 203.3697

EPHEMERIS_TYPE = 0
CLASSIFICATION_TYPE = U
NORAD_CAT_ID   = 67681
ELEMENT_SET_NO = 999
REV_AT_EPOCH   = 308
BSTAR          = .47137854E-3
MEAN_MOTION_DOT = .11052E-3
MEAN_MOTION_DDOT = 0

CCSDS_OMM_VERS = 2.0
CREATION_DATE  = 
ORIGINATOR     = 

OBJECT_NAME    = 2026-023J
OBJECT_ID      = 2026-023J
CENTER_NAME    = EARTH
REF_FRAME      = TEME
TIME_SYSTEM    = UTC
MEAN_ELEMENT_THEORY = SGP/SGP4

EPOCH          = 2026-02-26T14:41:57.858144
MEAN_MOTION    = 15.22919160
ECCENTRICITY   = .00235548
INCLINATION    = 96.6377
RA_OF_ASC_NODE = 134.3553
ARG_OF_PERICENTER = 152.0777
MEAN_ANOMALY   = 208.1731

EPHEMERIS_TYPE = 0
CLASSIFICATION_TYPE = U
NORAD_CAT_ID   = 67682
ELEMENT_SET_NO = 999
REV_AT_EPOCH   = 315
BSTAR          = .6630381E-3
MEAN_MOTION_DOT = .15631E-3
MEAN_MOTION_DDOT = 0

CCSDS_OMM_VERS = 2.0
CREATION_DATE  = 
ORIGINATOR     = 

OBJECT_NAME    = ISS OBJECT XZ
OBJECT_ID      = 1998-067XZ
CENTER_NAME    = EARTH
REF_FRAME      = TEME
TIME_SYSTEM    = UTC
MEAN_ELEMENT_THEORY = SGP/SGP4

EPOCH          = 2026-02-26T13:59:54.655872
MEAN_MOTION    = 15.50854175
ECCENTRICITY   = .00097756
INCLINATION    = 51.6313
RA_OF_ASC_NODE = 126.9935
ARG_OF_PERICENTER = 149.0473
MEAN_ANOMALY   = 211.1094

EPHEMERIS_TYPE = 0
CLASSIFICATION_TYPE = U
NORAD_CAT_ID   = 67683
ELEMENT_SET_NO = 999
REV_AT_EPOCH   = 306
BSTAR          = .69810786E-3
MEAN_MOTION_DOT = .40888E-3
MEAN_MOTION_DDOT = 0

CCSDS_OMM_VERS = 2.0
CREATION_DATE  = 
ORIGINATOR     = 

OBJECT_NAME    = GXIBA-1
OBJECT_ID      = 1998-067YA
CENTER_NAME    = EARTH
REF_FRAME      = TEME
TIME_SYSTEM    = UTC
MEAN_ELEMENT_THEORY = SGP/SGP4

EPOCH          = 2026-02-26T13:41:26.742624
MEAN_MOTION    = 15.52453844
ECCENTRICITY   = .00112326
INCLINATION    = 51.6306
RA_OF_ASC_NODE = 126.9092
ARG_OF_PERICENTER = 140.1266
MEAN_ANOMALY   = 220.0551

EPHEMERIS_TYPE = 0
CLASSIFICATION_TYPE = U
NORAD_CAT_ID   = 67684
ELEMENT_SET_NO = 999
REV_AT_EPOCH   = 306
BSTAR          = .11547598E-2
MEAN_MOTION_DOT = .72297E-3
MEAN_MOTION_DDOT = 0

CCSDS_OMM_VERS = 2.0
CREATION_DATE  = 
ORIGINATOR     = 

OBJECT_NAME    = CORAL
OBJECT_ID      = 1998-067YB
CENTER_NAME    = EARTH
REF_FRAME      = TEME
TIME_SYSTEM    = UTC
MEAN_ELEMENT_THEORY = SGP/SGP4

EPOCH          = 2026-02-26T13:56:39.515424
MEAN_MOTION    = 15.51107174
ECCENTRICITY   = .00116746
INCLINATION    = 51.6315
RA_OF_ASC_NODE = 126.9792
ARG_OF_PERICENTER = 145.1158
MEAN_ANOMALY   = 215.0598

EPHEMERIS_TYPE = 0
CLASSIFICATION_TYPE = U
NORAD_CAT_ID   = 67685
ELEMENT_SET_NO = 999
REV_AT_EPOCH   = 306
BSTAR          = .75186467E-3
MEAN_MOTION_DOT = .44531E-3
MEAN_MOTION_DDOT = 0

